MEAN_MOTION;ECCENTRICITY;INCLINATION;RA_OF_ASC_NODE;ARG_OF_PERICENTER;MEAN_ANOMALY;BSTAR;MEAN_MOTION_DOT;MEAN_MOTION_DDOT;TYPE
15.12290164;0.0007679;86.3913;124.8588;168.3437;191.7981;1.4202E-5;2.82E-6;0;Iridium
15.12290465;0.0007812;86.3911;124.5141;165.9651;194.1807;1.6483E-5;3.21E-6;0;Iridium
15.12290543;0.0007835;86.3911;124.4514;165.5188;194.6277;1.7015E-5;3.31E-6;0;Iridium
15.12291833;0.0008001;86.3909;124.0439;162.7558;197.3954;2.7054E-5;5.04E-6;0;Iridium
15.12291994;0.0008027;86.3909;123.9813;162.3087;197.8433;2.807E-5;5.22E-6;0;Iridium
15.12292471;0.0008116;86.3908;123.7306;160.5809;199.5741;3.1455E-5;5.8E-6;0;Iridium
15.12293994;0.0008334;86.3907;123.1665;156.7951;203.3665;4.1179E-5;7.49E-6;0;Iridium
15.12293994;0.0008334;86.3907;123.1665;156.7951;203.3665;4.1179E-5;7.49E-6;0;Iridium
15.12294374;0.0008382;86.3906;123.0098;155.7425;204.421;4.2825E-5;7.77E-6;0;Iridium
15.12295661;0.0008531;86.3906;122.6337;153.2521;206.9159;4.9451E-5;8.92E-6;0;Iridium
15.12295661;0.0008531;86.3906;122.6337;153.2521;206.9159;4.9451E-5;8.92E-6;0;Iridium
15.1229605;0.0008571;86.3905;122.5084;152.4094;207.7601;5.0851E-5;9.16E-6;0;Iridium
15.12296975;0.0008671;86.3905;122.2264;150.5581;209.6148;5.4584E-5;9.81E-6;0;Iridium
15.12297572;0.000873;86.3905;122.0383;149.3039;210.8712;5.5752E-5;1.001E-5;0;Iridium
15.12299042;0.0008842;86.3905;121.6936;147.0651;213.114;6.0579E-5;1.084E-5;0;Iridium
15.12299042;0.0008842;86.3905;121.6936;147.0651;213.114;6.0579E-5;1.084E-5;0;Iridium
15.12299534;0.0008842;86.3904;121.5682;146.1936;213.9868;6.1265E-5;1.096E-5;0;Iridium
15.1230045;0.0008953;86.3904;121.1921;143.7561;216.4287;5.5693E-5;1.0E-5;0;Iridium
15.12302237;0.0009084;86.3903;120.7219;140.7431;219.4468;5.3468E-5;9.62E-6;0;Iridium
15.12302358;0.0009101;86.3903;120.6905;140.5479;219.6425;5.3175E-5;9.57E-6;0;Iridium
15.12303741;0.0009224;86.3903;120.2828;138.0092;222.1856;4.8132E-5;8.69E-6;0;Iridium
15.12304628;0.0009249;86.3902;120.1888;137.3769;222.8189;5.262E-5;9.47E-6;0;Iridium
15.12305748;0.0009355;86.3902;119.7812;134.7726;225.4276;4.4607E-5;8.08E-6;0;Iridium
15.12305748;0.0009355;86.3902;119.7812;134.7726;225.4276;4.4607E-5;8.08E-6;0;Iridium
15.12305823;0.0009361;86.3902;119.7499;134.5679;225.6326;4.3766E-5;7.94E-6;0;Iridium
15.12306951;0.000946;86.3901;119.311;131.7452;228.4598;3.5644E-5;6.53E-6;0;Iridium
15.12307035;0.0009466;86.3901;119.2797;131.5351;228.6701;3.5074E-5;6.44E-6;0;Iridium
15.12307157;0.0009502;86.3901;119.1229;130.5061;229.7007;3.032E-5;5.61E-6;0;Iridium
15.12307934;0.0009554;86.39;118.8408;128.7331;231.4763;2.6764E-5;5.0E-6;0;Iridium
15.12307982;0.0009558;86.39;118.8095;128.5265;231.6832;2.6059E-5;4.88E-6;0;Iridium
15.12308441;0.0009639;86.3899;118.3706;125.7501;234.4636;1.7027E-5;3.31E-6;0;Iridium
15.1230849;0.0009643;86.3899;118.3392;125.5446;234.6694;1.6572E-5;3.24E-6;0;Iridium
15.12308975;0.000972;86.3897;117.869;122.5939;237.624;1.0795E-5;2.24E-6;0;Iridium
15.12309632;0.0009786;86.3895;117.3987;119.659;240.5624;9.6023E-6;2.03E-6;0;Iridium
15.12309991;0.0009845;86.3893;116.9598;116.9742;243.2504;8.8405E-6;1.9E-6;0;Iridium
15.12309981;0.0009848;86.3893;116.9284;116.7745;243.4502;8.4213E-6;1.83E-6;0;Iridium
15.12310331;0.0009905;86.389;116.4581;113.988;246.2397;8.8081E-6;1.89E-6;0;Iridium
15.12310331;0.0009905;86.389;116.4581;113.988;246.2397;8.8081E-6;1.89E-6;0;Iridium
15.12311086;0.0009949;86.3889;116.0192;111.3667;248.8635;1.366E-5;2.73E-6;0;Iridium
15.12311826;0.0009999;86.3887;115.5174;108.4356;251.797;1.8483E-5;3.57E-6;0;Iridium
15.12312369;0.0010023;86.3886;115.3292;107.3743;252.8593;2.2335E-5;4.23E-6;0;Iridium
15.12313076;0.0010046;86.3886;115.047;105.7533;254.4815;2.7379E-5;5.11E-6;0;Iridium
15.12313143;0.0010049;86.3886;115.0156;105.5682;254.6667;2.7748E-5;5.17E-6;0;Iridium
15.12313613;0.0010068;86.3885;114.8588;104.7054;255.5301;3.0967E-5;5.73E-6;0;Iridium
15.12314309;0.0010085;86.3885;114.5766;103.1425;257.094;3.5422E-5;6.5E-6;0;Iridium
15.12314383;0.0010088;86.3885;114.5452;102.9597;257.2769;3.578E-5;6.56E-6;0;Iridium
15.12314545;0.0010101;86.3885;114.4197;102.2788;257.9582;3.6253E-5;6.64E-6;0;Iridium
15.12314838;0.0010107;86.3885;114.3257;101.7648;258.4726;3.7776E-5;6.91E-6;0;Iridium
15.12316143;0.0010136;86.3885;113.9493;99.6767;260.5618;4.5599E-5;8.26E-6;0;Iridium
15.12316704;0.0010144;86.3886;113.7925;98.8232;261.4156;4.8125E-5;8.7E-6;0;Iridium
15.12317394;0.0010151;86.3886;113.6357;97.9372;262.3019;5.1736E-5;9.32E-6;0;Iridium
15.12318016;0.0010164;86.3886;113.4789;97.0585;263.181;5.4671E-5;9.83E-6;0;Iridium
15.12319658;0.0010176;86.3886;113.1967;95.4905;264.7495;6.3413E-5;1.135E-5;0;Iridium
15.12320855;0.0010188;86.3886;112.9771;94.2483;265.9921;6.8337E-5;1.22E-5;0;Iridium
15.12322684;0.0010197;86.3886;112.6949;92.6614;267.5793;7.558E-5;1.345E-5;0;Iridium
15.12322684;0.0010197;86.3886;112.6949;92.6614;267.5793;7.558E-5;1.345E-5;0;Iridium
15.12323685;0.0010204;86.3886;112.5067;91.5891;268.6517;7.7668E-5;1.382E-5;0;Iridium
15.12325558;0.0010208;86.3887;112.2244;89.9921;270.2488;8.2589E-5;1.467E-5;0;Iridium
15.12326772;0.0010212;86.3886;112.0049;88.7194;271.5215;8.3168E-5;1.477E-5;0;Iridium
15.12328086;0.0010213;86.3887;111.754;87.2946;272.9462;8.1823E-5;1.454E-5;0;Iridium
15.12331593;0.0010208;86.3887;111.0642;83.2255;277.0146;7.1734E-5;1.279E-5;0;Iridium
15.1233222;0.0010199;86.3888;110.8133;81.7492;278.4903;6.0943E-5;1.092E-5;0;Iridium
15.12334486;0.0010178;86.3888;110.3116;78.7316;281.5066;5.1543E-5;9.29E-6;0;Iridium
15.12334486;0.0010178;86.3888;110.3116;78.7316;281.5066;5.1543E-5;9.29E-6;0;Iridium
15.12334956;0.0010169;86.3888;110.1234;77.5822;282.6554;4.5034E-5;8.17E-6;0;Iridium
15.12335549;0.0010145;86.3889;109.8412;75.8956;284.341;3.5171E-5;6.46E-6;0;Iridium
15.12337403;0.0010092;86.3889;109.1827;71.8711;288.3626;2.4388E-5;4.59E-6;0;Iridium
15.12337819;0.0010057;86.3889;108.9005;70.1616;290.0706;1.9176E-5;3.69E-6;0;Iridium
15.12338581;0.0009996;86.389;108.4301;67.3085;292.9209;1.4861E-5;2.94E-6;0;Iridium
15.12338735;0.0009991;86.389;108.3675;66.947;293.2821;1.5022E-5;2.97E-6;0;Iridium
15.12339261;0.0009924;86.3889;107.9285;64.2224;296.0038;1.2905E-5;2.6E-6;0;Iridium
15.12339421;0.0009898;86.3889;107.7403;63.079;297.1458;1.2196E-5;2.48E-6;0;Iridium
15.12339753;0.000985;86.3889;107.4894;61.5785;298.6445;1.2805E-5;2.59E-6;0;Iridium
15.12339932;0.0009814;86.3888;107.2699;60.2443;299.977;1.2804E-5;2.58E-6;0;Iridium
15.12340196;0.0009764;86.3888;107.019;58.678;301.5413;1.4073E-5;2.8E-6;0;Iridium
15.12340583;0.0009722;86.3888;106.7995;57.3433;302.8743;1.6377E-5;3.2E-6;0;Iridium
15.12340783;0.0009665;86.3888;106.5487;55.8145;304.4009;1.7749E-5;3.44E-6;0;Iridium
15.12340783;0.0009665;86.3888;106.5487;55.8145;304.4009;1.7749E-5;3.44E-6;0;Iridium
15.12341132;0.0009618;86.3888;106.3292;54.5009;305.7126;2.0201E-5;3.87E-6;0;Iridium
15.12341997;0.0009554;86.3888;106.0783;52.9797;307.2315;2.738E-5;5.11E-6;0;Iridium
15.12342303;0.0009486;86.3888;105.7961;51.3061;308.9025;2.9386E-5;5.46E-6;0;Iridium
15.12342658;0.0009427;86.3888;105.6079;50.2583;309.9485;3.2046E-5;5.92E-6;0;Iridium
15.1234317;0.0009372;86.3888;105.3884;48.9497;311.255;3.5369E-5;6.49E-6;0;Iridium
15.12343652;0.0009298;86.3889;105.1062;47.2258;312.9761;3.8263E-5;6.99E-6;0;Iridium
15.12343652;0.0009298;86.3889;105.1062;47.2258;312.9761;3.8263E-5;6.99E-6;0;Iridium
15.12344239;0.0009246;86.3889;104.9181;46.1159;314.0842;4.1982E-5;7.64E-6;0;Iridium
15.12344742;0.0009159;86.389;104.6044;44.2321;315.9649;4.3084E-5;7.83E-6;0;Iridium
15.12345767;0.0009114;86.389;104.4477;43.3004;316.8949;5.0843E-5;9.17E-6;0;Iridium
15.12346745;0.0009032;86.3891;104.1654;41.6535;318.5391;5.5462E-5;9.97E-6;0;Iridium
15.12347488;0.0008974;86.3891;103.9773;40.5379;319.6527;5.8391E-5;1.048E-5;0;Iridium
15.12348737;0.0008878;86.3892;103.6324;38.4094;321.7775;6.1512E-5;1.102E-5;0;Iridium
15.1234936;0.0008831;86.3892;103.4757;37.468;322.7173;6.2427E-5;1.118E-5;0;Iridium
15.12350469;0.0008756;86.3894;103.1935;35.6861;324.4961;6.3453E-5;1.136E-5;0;Iridium
15.12351229;0.0008707;86.3894;103.0054;34.4891;325.6911;6.315E-5;1.13E-5;0;Iridium
15.12352536;0.0008629;86.3896;102.7232;32.6849;327.4922;6.3847E-5;1.142E-5;0;Iridium
15.12353325;0.0008578;86.3896;102.5351;31.4611;328.7139;6.2429E-5;1.118E-5;0;Iridium
15.12354792;0.00085;86.3898;102.2529;29.6425;330.5294;6.1845E-5;1.108E-5;0;Iridium
15.12354931;0.0008493;86.3898;102.2216;29.4389;330.7327;6.1628E-5;1.104E-5;0;Iridium
15.12355415;0.0008451;86.3898;102.0648;28.4009;331.7689;5.8217E-5;1.045E-5;0;Iridium
15.12356363;0.0008373;86.39;101.7827;26.5412;333.6254;5.2346E-5;9.43E-6;0;Iridium
15.12356465;0.0008363;86.39;101.7513;26.3431;333.8231;5.1678E-5;9.32E-6;0;Iridium
15.12357054;0.0008323;86.39;101.5946;25.275;334.8895;4.8843E-5;8.83E-6;0;Iridium
15.1235794;0.0008247;86.3902;101.3438;23.5665;336.595;4.425E-5;8.03E-6;0;Iridium
15.1235794;0.0008247;86.3902;101.3438;23.5665;336.595;4.425E-5;8.03E-6;0;Iridium
15.12358889;0.0008191;86.3902;101.1243;22.0609;338.098;4.2265E-5;7.69E-6;0;Iridium
15.12359478;0.0008114;86.3904;100.8735;20.3203;339.8357;3.5767E-5;6.56E-6;0;Iridium
15.12359581;0.0008051;86.3904;100.6541;18.818;341.3355;2.7258E-5;5.09E-6;0;Iridium
15.12360187;0.0007968;86.3905;100.4033;17.0678;343.0827;2.3023E-5;4.35E-6;0;Iridium
15.1236081;0.0007909;86.3905;100.1839;15.5124;344.6356;2.1368E-5;4.07E-6;0;Iridium
15.12361595;0.0007825;86.3905;99.9331;13.6891;346.4559;2.0858E-5;3.98E-6;0;Iridium
15.1236167;0.000776;86.3906;99.7137;12.123;348.0194;1.559E-5;3.06E-6;0;Iridium
15.12362249;0.0007614;86.3906;99.2435;8.6547;351.4822;1.1092E-5;2.29E-6;0;Iridium
15.12362679;0.0007532;86.3906;98.9927;6.7172;353.4166;1.1195E-5;2.3E-6;0;Iridium
15.12363696;0.0007348;86.3906;98.4599;2.6675;357.4601;1.4434E-5;2.86E-6;0;Iridium
15.12363696;0.0007348;86.3906;98.4599;2.6675;357.4601;1.4434E-5;2.86E-6;0;Iridium
15.12363917;0.0007274;86.3906;98.2718;1.2236;358.9019;1.4605E-5;2.89E-6;0;Iridium
15.12364523;0.0007195;86.3906;97.9896;358.9491;1.1732;1.7365E-5;3.37E-6;0;Iridium
